STARLINK-1394
1 45679U 20035Y   26092.91668981  .00160024  00000+0  23756-2 0  9995
2 45679  53.0461 279.9663 0004216 247.3403 234.8005 15.54163520  5807
